{"type": "FeatureCollection", "features": [{"type": "Feature", "properties": {"region": "North East", "code": "E12000001"}, "geometry": {"type": "Polygon", "coordinates": [[[-2.7, 54.2], [-1.0, 54.2], [-1.0, 55.8], [-2.7, 55.8], [-2.7, 54.2]]]}}, {"type": "Feature", "properties": {"region": "North West", "code": "E12000002"}, "geometry": {"type": "Polygon", "coordinates": [[[-3.5, 53.0], [-1.5, 53.0], [-1.5, 55.2], [-3.5, 55.2], [-3.5, 53.0]]]}}, {"type": "Feature", "properties": {"region": "Yorkshire & Humber", "code": "E12000003"}, "geometry": {"type": "Polygon", "coordinates": [[[-2.0, 53.2], [-0.5, 53.2], [-0.5, 54.5], [-2.0, 54.5], [-2.0, 53.2]]]}}, {"type": "Feature", "properties": {"region": "East Midlands", "code": "E12000004"}, "geometry": {"type": "Polygon", "coordinates": [[[-1.8, 52.2], [0.0, 52.2], [0.0, 53.3], [-1.8, 53.3], [-1.8, 52.2]]]}}, {"type": "Feature", "properties": {"region": "West Midlands", "code": "E12000005"}, "geometry": {"type": "Polygon", "coordinates": [[[-2.5, 51.9], [-1.3, 51.9], [-1.3, 52.8], [-2.5, 52.8], [-2.5, 51.9]]]}}, {"type": "Feature", "properties": {"region": "East of England", "code": "E12000006"}, "geometry": {"type": "Polygon", "coordinates": [[[-0.5, 51.8], [1.5, 51.8], [1.5, 52.9], [-0.5, 52.9], [-0.5, 51.8]]]}}, {"type": "Feature", "properties": {"region": "London", "code": "E12000007"}, "geometry": {"type": "Polygon", "coordinates": [[[-0.5, 51.3], [0.2, 51.3], [0.2, 51.7], [-0.5, 51.7], [-0.5, 51.3]]]}}, {"type": "Feature", "properties": {"region": "South East", "code": "E12000008"}, "geometry": {"type": "Polygon", "coordinates": [[[-2.0, 50.6], [1.5, 50.6], [1.5, 51.4], [-2.0, 51.4], [-2.0, 50.6]]]}}, {"type": "Feature", "properties": {"region": "South West", "code": "E12000009"}, "geometry": {"type": "Polygon", "coordinates": [[[-5.5, 49.8], [-2.0, 49.8], [-2.0, 51.5], [-5.5, 51.5], [-5.5, 49.8]]]}}, {"type": "Feature", "properties": {"region": "Wales", "code": "W92000004"}, "geometry": {"type": "Polygon", "coordinates": [[[-5.3, 51.3], [-2.6, 51.3], [-2.6, 53.4], [-5.3, 53.4], [-5.3, 51.3]]]}}, {"type": "Feature", "properties": {"region": "Scotland", "code": "S92000003"}, "geometry": {"type": "Polygon", "coordinates": [[[-6.5, 54.6], [-2.0, 54.6], [-2.0, 59.0], [-6.5, 59.0], [-6.5, 54.6]]]}}, {"type": "Feature", "properties": {"region": "Northern Ireland", "code": "N92000002"}, "geometry": {"type": "Polygon", "coordinates": [[[-7.8, 53.9], [-5.3, 53.9], [-5.3, 55.3], [-7.8, 55.3], [-7.8, 53.9]]]}}]}